UMBRA-07                
1 58297U 23174AT  26164.72399580  .00009757  00000+0  61926-3 0  9994
2 58297  97.3793 220.6171 0004705  96.3431 263.8334 15.09072766142898
TIANMU-1 14             
1 58648U 23205D   26164.96101448  .00005907  00000+0  22666-3 0  9990
2 58648  97.3397 185.7811 0007256 357.8569   2.2638 15.26828317137011
TIANMU-1 19             
1 58660U 23208A   26164.95486897  .00008587  00000+0  28452-3 0  9996
2 58660  97.4503 281.2379 0004063 342.7871  17.3232 15.31530617136833
TIANMU-1 20             
1 58661U 23208B   26164.92988953  .00008700  00000+0  27765-3 0  9997
2 58661  97.4444 281.8447 0006285 347.1099  12.9982 15.32721403136928
TIANMU-1 21             
1 58662U 23208C   26164.92312734  .00009750  00000+0  28911-3 0  9996
2 58662  97.4503 284.5044 0006211 337.6264  22.4707 15.35025297137063
TIANMU-1 22             
1 58663U 23208D   26164.93558326  .00008142  00000+0  27422-3 0  9997
2 58663  97.4499 281.1572 0003530  16.1237 344.0116 15.31017754136833
TIANMU-1 15             
1 58700U 24004A   26164.95321435  .00005762  00000+0  22017-3 0  9995
2 58700  97.4662 351.1433 0007027  13.7535 346.3894 15.26994100135289
TIANMU-1 16             
1 58701U 24004B   26164.94186843  .00005921  00000+0  22807-3 0  9991
2 58701  97.4608 350.3725 0006164  19.0021 341.1447 15.26719025135283
TIANMU-1 17             
1 58702U 24004C   26164.92732022  .00006000  00000+0  23111-3 0  9994
2 58702  97.4636 350.8417 0005839  25.1858 334.9664 15.26718227135275
TIANMU-1 18             
1 58703U 24004D   26164.96978992  .00005540  00000+0  21199-3 0  9999
2 58703  97.4653 351.1376 0004353  25.4101 334.7351 15.26976971135281
